NORAD_CAT_ID,OBJECT_NAME,OBJECT_TYPE,EPOCH,MEAN_MOTION,ECCENTRICITY,INCLINATION,RA_OF_ASC_NODE,ARG_OF_PERICENTER,MEAN_ANOMALY,BSTAR,MEAN_MOTION_DOT,MEAN_MOTION_DDOT,TLE_LINE0,TLE_LINE1,TLE_LINE2,SEMIMAJOR_AXIS,PERIOD,APOGEE,PERIGEE,DECAYED
53779.0,STARLINK-4706,PAYLOAD,2024-05-17 00:16:59,15.0885613,0.0001215,53.2177,4.6234,66.5207,293.5913,0.0021811,0.0003461,0.0,0 STARLINK-4706,1 53779U 22111G   24138.01180273  .00034610  00000-0  21811-2 0  9997,2 53779  53.2177   4.6234 0001215  66.5207 293.5913 15.08856130 92990,6917.831,95.437,540.537,538.856,0.0
53779.0,STARLINK-4706,PAYLOAD,2024-05-17 08:13:54,15.0886243,5.05e-05,53.218,3.1397,74.3407,285.764,0.0013308,0.00020968,0.0,0 STARLINK-4706,1 53779U 22111G   24138.34299621  .00020968  00000-0  13308-2 0  9994,2 53779  53.2180   3.1397 0000505  74.3407 285.7640 15.08862430 93045,6917.812,95.436,540.026,539.327,0.0
53779.0,STARLINK-4706,PAYLOAD,2024-05-17 20:57:01,15.08822197,0.0001007,53.2166,0.7611,98.6454,261.4652,0.001172,0.00018404,0.0,0 STARLINK-4706,1 53779U 22111G   24138.87293368  .00018404  00000-0  11720-2 0  9992,2 53779  53.2166   0.7611 0001007  98.6454 261.4652 15.08822197 93129,6917.935,95.439,540.496,539.103,0.0
53779.0,STARLINK-4706,PAYLOAD,2024-05-17 22:32:24,15.08824143,0.0001352,53.2169,0.4631,92.1542,267.9605,0.0015466,0.00024401,0.0,0 STARLINK-4706,1 53779U 22111G   24138.93917398  .00024401  00000-0  15466-2 0  9990,2 53779  53.2169   0.4631 0001352  92.1542 267.9605 15.08824143 93943,6917.929,95.439,540.729,538.859,0.0
53779.0,STARLINK-4706,PAYLOAD,2024-05-18 14:26:15,15.08866208,0.0001399,53.219,357.4893,93.5965,266.5187,0.0021673,0.00034398,0.0,0 STARLINK-4706,1 53779U 22111G   24139.60157361  .00034398  00000-0  21673-2 0  9994,2 53779  53.2190 357.4893 0001399  93.5965 266.5187 15.08866208 94047,6917.8,95.436,540.633,538.697,0.0
53779.0,STARLINK-4706,PAYLOAD,2024-05-18 20:47:48,15.08875826,0.0001357,53.2195,356.2979,95.3721,264.7426,0.0017791,0.00028168,0.0,0 STARLINK-4706,1 53779U 22111G   24139.86652888  .00028168  00000-0  17791-2 0  9990,2 53779  53.2195 356.2979 0001357  95.3721 264.7426 15.08875826 93274,6917.771,95.435,540.575,538.697,0.0
53779.0,STARLINK-4706,PAYLOAD,2024-05-18 23:58:34,15.0888228,0.0001341,53.2197,355.7036,94.6993,265.4152,0.0016967,0.00026849,0.0,0 STARLINK-4706,1 53779U 22111G   24139.99900546  .00026849  00000-0  16967-2 0  9999,2 53779  53.2197 355.7036 0001341  94.6993 265.4152 15.08882280 94109,6917.751,95.435,540.544,538.688,0.0
53779.0,STARLINK-4706,PAYLOAD,2024-05-19 20:38:34,15.08829903,0.0001186,53.2187,351.8382,113.7522,246.3595,0.0004668,7.147e-05,0.0,0 STARLINK-4706,1 53779U 22111G   24140.86012722  .00007147  00000-0  46680-3 0  9993,2 53779  53.2187 351.8382 0001186 113.7522 246.3595 15.08829903 93423,6917.911,95.438,540.597,538.956,0.0
53779.0,STARLINK-4706,PAYLOAD,2024-05-19 23:49:21,15.08831424,0.0001304,53.2186,351.2439,122.4141,237.6977,0.0013816,0.00021763,0.0,0 STARLINK-4706,1 53779U 22111G   24140.99260927  .00021763  00000-0  13816-2 0  9993,2 53779  53.2186 351.2439 0001304 122.4141 237.6977 15.08831424 94255,6917.907,95.438,540.674,538.87,0.0
53779.0,STARLINK-4706,PAYLOAD,2024-05-20 20:29:22,15.08835102,0.0001117,53.2166,347.378,106.143,253.9685,0.00027841,4.145e-05,0.0,0 STARLINK-4706,1 53779U 22111G   24141.85373593  .00004145  00000-0  27841-3 0  9992,2 53779  53.2166 347.3780 0001117 106.1430 253.9685 15.08835102 93578,6917.895,95.438,540.533,538.988,0.0
53779.0,STARLINK-4706,PAYLOAD,2024-05-21 20:20:10,15.08839974,0.000117,53.2174,342.9162,101.5381,258.5743,0.00028416,4.237e-05,0.0,0 STARLINK-4706,1 53779U 22111G   24142.84733818  .00004237  00000-0  28416-3 0  9993,2 53779  53.2174 342.9162 0001170 101.5381 258.5743 15.08839974 94539,6917.88,95.438,540.555,538.936,0.0
53779.0,STARLINK-4706,PAYLOAD,2024-05-23 20:01:44,15.08843856,0.0001168,53.2175,333.9972,86.6111,273.5015,0.00013323,1.833e-05,0.0,0 STARLINK-4706,1 53779U 22111G   24144.83453783  .00001833  00000-0  13323-3 0  9994,2 53779  53.2175 333.9972 0001168  86.6111 273.5015 15.08843856 94027,6917.869,95.437,540.542,538.926,0.0
53779.0,STARLINK-4706,PAYLOAD,2024-05-24 11:55:35,15.08847465,0.0001182,53.2178,331.0248,103.979,256.1333,0.00012559,1.712e-05,0.0,0 STARLINK-4706,1 53779U 22111G   24145.49693466  .00001712  00000-0  12559-3 0  9997,2 53779  53.2178 331.0248 0001182 103.9790 256.1333 15.08847465 94937,6917.858,95.437,540.54,538.905,0.0
53779.0,STARLINK-4706,PAYLOAD,2024-05-24 21:27:54,15.08842924,0.0001015,53.217,329.2367,107.8241,252.2862,1.8305e-05,4e-08,0.0,0 STARLINK-4706,1 53779U 22111G   24145.89437632  .00000004  00000-0  18305-4 0  9991,2 53779  53.2170 329.2367 0001015 107.8241 252.2862 15.08842924 94994,6917.871,95.437,540.439,539.034,0.0
53779.0,STARLINK-4706,PAYLOAD,2024-05-25 11:46:22,15.08834076,9.8e-05,53.2169,326.5614,106.011,254.099,-9.4062e-05,-1.784e-05,0.0,0 STARLINK-4706,1 53779U 22111G   24146.49054194 -.00001784  00000-0 -94062-4 0  9998,2 53779  53.2169 326.5614 0000980 106.0110 254.0990 15.08834076 94275,6917.898,95.438,540.441,539.086,0.0
53779.0,STARLINK-4706,PAYLOAD,2024-05-26 05:15:37,15.08840715,0.0001021,53.2188,323.2928,94.2586,265.8523,3.9437e-05,3.4e-06,0.0,0 STARLINK-4706,1 53779U 22111G   24147.21918313  .00000340  00000-0  39437-4 0  9991,2 53779  53.2188 323.2928 0001021  94.2586 265.8523 15.08840715 95191,6917.878,95.438,540.45,539.037,0.0
53779.0,STARLINK-4706,PAYLOAD,2024-05-26 21:09:28,15.08843572,9.49e-05,53.2189,320.3179,84.8052,275.3048,0.00010911,1.449e-05,0.0,0 STARLINK-4706,1 53779U 22111G   24147.88158039  .00001449  00000-0  10911-3 0  9991,2 53779  53.2189 320.3179 0000949  84.8052 275.3048 15.08843572 94482,6917.869,95.437,540.391,539.078,0.0
53779.0,STARLINK-4706,PAYLOAD,2024-05-27 11:27:56,15.08836,9.6e-05,53.2191,317.6453,72.5443,287.5654,0.0001745,2.49e-05,0.0,0 STARLINK-4706,1 53779U 22111G   24148.47774294  .00002490  00000-0  17450-3 0  9996,2 53779  53.2191 317.6453 0000960  72.5443 287.5654 15.08836000 94576,6917.893,95.438,540.422,539.093,0.0
53779.0,STARLINK-4706,PAYLOAD,2024-05-28 14:29:30,15.08842056,0.0001095,53.2182,312.5847,112.1233,247.9876,1.0188e-05,-1.26e-06,0.0,0 STARLINK-4706,1 53779U 22111G   24149.60382213 -.00000126  00000-0  10188-4 0  9995,2 53779  53.2182 312.5847 0001095 112.1233 247.9876 15.08842056 95558,6917.874,95.437,540.497,538.982,0.0
53779.0,STARLINK-4706,PAYLOAD,2024-05-28 17:40:16,15.08841311,0.0001066,53.2185,311.9902,112.8165,247.294,-4.9222e-06,-3.66e-06,0.0,0 STARLINK-4706,1 53779U 22111G   24149.73630258 -.00000366  00000-0 -49222-5 0  9993,2 53779  53.2185 311.9902 0001066 112.8165 247.2940 15.08841311 94765,6917.876,95.437,540.479,539.004,0.0
53779.0,STARLINK-4706,PAYLOAD,2024-05-29 14:20:17,15.08838628,9.7e-05,53.2188,308.1257,99.8462,260.264,3.9096e-06,-2.26e-06,0.0,0 STARLINK-4706,1 53779U 22111G   24150.59742401 -.00000226  00000-0  39096-5 0  9995,2 53779  53.2188 308.1257 0000970  99.8462 260.2640 15.08838628 95700,6917.885,95.438,540.421,539.079,0.0
53779.0,STARLINK-4706,PAYLOAD,2024-05-29 15:55:40,15.08838745,9.62e-05,53.2188,307.8284,97.762,262.3482,2.7506e-06,-2.44e-06,0.0,0 STARLINK-4706,1 53779U 22111G   24150.66366392 -.00000244  00000-0  27506-5 0  9997,2 53779  53.2188 307.8284 0000962  97.7620 262.3482 15.08838745 95718,6917.884,95.438,540.415,539.084,0.0
53779.0,STARLINK-4706,PAYLOAD,2024-05-30 09:24:54,15.08839058,9.14e-05,53.2184,304.5563,90.899,269.2106,5.9395e-05,6.58e-06,0.0,0 STARLINK-4706,1 53779U 22111G   24151.39230237  .00000658  00000-0  59395-4 0  9994,2 53779  53.2184 304.5563 0000914  90.8990 269.2106 15.08839058 95019,6917.883,95.438,540.381,539.116,0.0
53779.0,STARLINK-4706,PAYLOAD,2024-05-30 14:11:04,15.08841463,9.17e-05,53.2181,303.6655,84.473,275.6367,8.2926e-05,1.032e-05,0.0,0 STARLINK-4706,1 53779U 22111G   24151.59102066  .00001032  00000-0  82926-4 0  9997,2 53779  53.2181 303.6655 0000917  84.4730 275.6367 15.08841463 95857,6917.876,95.437,540.375,539.107,0.0
53779.0,STARLINK-4706,PAYLOAD,2024-05-30 15:46:27,15.08842341,9.22e-05,53.2179,303.3681,85.1292,274.9806,9.0676e-05,1.156e-05,0.0,0 STARLINK-4706,1 53779U 22111G   24151.65725983  .00001156  00000-0  90676-4 0  9991,2 53779  53.2179 303.3681 0000922  85.1292 274.9806 15.08842341 95864,6917.873,95.437,540.376,539.1,0.0
53779.0,STARLINK-4706,PAYLOAD,2024-05-31 14:01:51,15.08838722,9.37e-05,53.2171,299.2051,87.3169,272.7931,5.5371e-05,5.94e-06,0.0,0 STARLINK-4706,1 53779U 22111G   24152.58462356  .00000594  00000-0  55371-4 0  9994,2 53779  53.2171 299.2051 0000937  87.3169 272.7931 15.08838722 96003,6917.884,95.438,540.398,539.101,0.0
53779.0,STARLINK-4706,PAYLOAD,2024-05-31 18:48:01,15.08835792,0.0001228,53.2181,298.3143,85.2202,274.8931,3.218e-05,2.24e-06,0.0,0 STARLINK-4706,1 53779U 22111G   24152.78334634  .00000224  00000-0  32180-4 0  9996,2 53779  53.2181 298.3143 0001228  85.2202 274.8931 15.08835792 95225,6917.893,95.438,540.608,538.909,0.0
53779.0,STARLINK-4706,PAYLOAD,2024-06-01 02:44:55,15.08852535,0.0001171,53.2186,296.8262,79.138,280.9744,9.233e-05,1.182e-05,0.0,0 STARLINK-4706,1 53779U 22111G   24153.11453278  .00001182  00000-0  92330-4 0  9997,2 53779  53.2186 296.8262 0001171  79.1380 280.9744 15.08852535 95270,6917.842,95.437,540.517,538.897,0.0
53779.0,STARLINK-4706,PAYLOAD,2024-06-01 13:52:39,15.08831942,0.0001243,53.2192,294.7471,86.5671,273.5464,3.0344e-06,-2.4e-06,0.0,0 STARLINK-4706,1 53779U 22111G   24153.57822961 -.00000240  00000-0  30344-5 0  9999,2 53779  53.2192 294.7471 0001243  86.5671 273.5464 15.08831942 96155,6917.905,95.438,540.63,538.91,0.0
53779.0,STARLINK-4706,PAYLOAD,2024-06-01 18:38:47,15.0884124,0.0001167,53.2186,293.8508,80.7327,279.3797,-1.5757e-05,-5.39e-06,0.0,0 STARLINK-4706,1 53779U 22111G   24153.77694441 -.00000539  00000-0 -15757-4 0  9993,2 53779  53.2186 293.8508 0001167  80.7327 279.3797 15.08841240 95376,6917.877,95.437,540.549,538.934,0.0
